COSMOS 2439             
1 32956U 08025D   26162.93994676 -.00000012  00000+0 -15714-3 0  9995
2 32956  82.5083   1.0591 0020502 329.0047  30.9821 12.43069844819061
FENGYUN 3A              
1 32958U 08026A   26162.83154284  .00000042  00000+0  40218-4 0  9999
2 32958  98.6884 103.7650 0009370 137.8042 222.3857 14.19570092934641
ZHONGXING-9             
1 33051U 08028A   26162.92661403 -.00000233  00000+0  00000+0 0  9995
2 33051   0.7539  85.4458 0004263 335.1520 265.6490  1.00271681 65982
FGRST (GLAST)           
1 33053U 08029A   26162.53193185  .00003028  00000+0  10820-3 0  9991
2 33053  25.5814 243.7508 0007603 258.7530 101.2154 15.23922087994977
SKYNET 5C               
1 33055U 08030A   26162.90486830 -.00000126  00000+0  00000+0 0  9990
2 33055   3.7748  77.1013 0003968  14.1134 116.9777  1.00269706 65905
TURKSAT 3A              
1 33056U 08030B   26162.84537632  .00000162  00000+0  00000+0 0  9990
2 33056   0.0437  77.7375 0005020 352.3413 176.4502  1.00274029 52307
INTELSAT 25 (IS-25)     
1 33153U 08034A   26162.93701407 -.00000269  00000+0  00000+0 0  9994
2 33153   2.6955  80.4310 0003046  56.1680 246.0079  0.99037270 65634
ECHOSTAR 11             
1 33207U 08035A   26162.60141394 -.00000042  00000+0  00000+0 0  9991
2 33207   0.9899  84.2380 0002172 345.4325 296.9888  1.00271440 51156
SUPERBIRD-C2            
1 33274U 08038A   26162.93528074 -.00000292  00000+0  00000+0 0  9995
2 33274   2.3468  81.3253 0005943  25.6518 265.9834  1.00269564105673
INMARSAT 4-F3           
1 33278U 08039A   26162.67506019 -.00000127  00000+0  00000+0 0  9993
2 33278   4.2885  31.6117 0002822  53.2521 320.1640  1.00271785 46493
HUANJING 1A (HJ-1A)     
1 33320U 08041A   26162.97437828  .00000767  00000+0  98144-4 0  9998
2 33320  97.6678 149.0140 0019535 151.2324 208.9973 14.83972875957638
HUANJING 1B (HJ-1B)     
1 33321U 08041B   26162.94108850  .00001161  00000+0  14661-3 0  9996
2 33321  97.6516 152.1698 0035584 198.3111 161.6825 14.83309830957637
GEOEYE 1                
1 33331U 08042A   26162.89180487  .00000365  00000+0  77382-4 0  9993
2 33331  98.1235 236.8900 0005535  82.1999 277.9833 14.64720795949373
NIMIQ 4                 
1 33373U 08044A   26162.89213142 -.00000204  00000+0  00000+0 0  9997
2 33373   0.0189 307.6657 0001993 138.9120  52.7979  1.00268994 64939
GALAXY 19 (G-19)        
1 33376U 08045A   26162.67523352 -.00000122  00000+0  00000+0 0  9993
2 33376   0.0161 301.8034 0002580 139.9841 324.3216  1.00270649 64843
THEOS                   
1 33396U 08049A   26162.96649767 -.00000251  00000+0 -97812-4 0  9996
2 33396  98.5578 220.4195 0001272  80.1127 280.0194 14.20131583917225
SHIJIAN-6 03A (SJ-6 03A)
1 33408U 08053A   26162.97029084  .00005428  00000+0  27696-3 0  9991
2 33408  97.8419 196.1091 0012083  37.1555 323.0511 15.17115559962175
SHIJIAN-6 03B (SJ-6 03B)
1 33409U 08053B   26162.97799192  .00001095  00000+0  82979-4 0  9998
2 33409  97.8587 182.7832 0021186  61.3564 298.9788 15.04295673961963
COSMO-SKYMED 3          
1 33412U 08054A   26162.89745707  .00003583  00000+0  24375-3 0  9996
2 33412  97.8288  21.3812 0014420 286.6629  73.3015 15.06916036956145
SHIYAN-3 (SY-3)         
1 33433U 08056A   26162.95423155  .00000124  00000+0  63858-4 0  9996
2 33433  98.6065 189.5488 0014292 145.6891 214.5218 14.30800716918053
CHUANGXIN 1-02 (CX-1-02)
1 33434U 08056B   26162.98036801  .00000011  00000+0  21184-4 0  9999
2 33434  98.6141 189.2990 0014723 151.1798 209.0200 14.30151773917872
ASTRA 1M                
1 33436U 08057A   26162.91214833  .00000136  00000+0  00000+0 0  9995
2 33436   0.2822  82.3783 0004656  21.3381 144.2839  1.00269447 45682
YAOGAN-4                
1 33446U 08061A   26162.77004668  .00000815  00000+0  10626-3 0  9991
2 33446  97.9309  96.3204 0015777  88.4224 271.8797 14.83189739944863
EUTELSAT HOTBIRD 13C    
1 33459U 08065A   26162.89819811 -.00000268  00000+0  00000+0 0  9990
2 33459   2.9361  79.2518 0003345   1.2706  92.7635  1.00272949 47298
GOSAT (IBUKI)           
1 33492U 09002A   26162.88833285  .00000940  00000+0  17423-3 0  9996
2 33492  98.0884 274.0358 0001602  87.9866 272.1522 14.67540316930686
STARS (KUKAI)           
1 33498U 09002G   26162.80028226  .00003842  00000+0  35044-3 0  9998
2 33498  98.1545 109.8890 0008437 175.5651 184.5645 14.95712929937672
KKS-1 (KISEKI)          
1 33499U 09002H   26162.85928291  .00001126  00000+0  14508-3 0  9990
2 33499  98.1193  85.2170 0006819 316.1824  43.8847 14.83110411935402
EXPRESS-AM44            
1 33595U 09007A   26162.90616831 -.00000075  00000+0  00000+0 0  9993
2 33595   3.4487  78.4625 0004074 356.9764 140.0270  1.00271350 52235
NSS-9                   
1 33749U 09008A   26162.80206086  .00000088  00000+0  00000+0 0  9994
2 33749   1.2472  82.7051 0001952 347.0439 302.2029  1.00272144 63462
TELSTAR 11N             
1 34111U 09009A   26162.90091963 -.00000235  00000+0  00000+0 0  9991
2 34111   0.0044  68.3051 0002175  12.0299 106.6820  1.00269585 46190
NAVSTAR 63 (USA 203)    
1 34661U 09014A   26162.57385741  .00000088  00000+0  00000+0 0  9995
2 34661  54.4840 210.8803 0144203  61.5671 301.8293  2.00552574126172
