OBJECT_NAME,OBJECT_ID,EPOCH,MEAN_MOTION,ECCENTRICITY,INCLINATION,RA_OF_ASC_NODE,ARG_OF_PERICENTER,MEAN_ANOMALY,EPHEMERIS_TYPE,CLASSIFICATION_TYPE,NORAD_CAT_ID,ELEMENT_SET_NO,REV_AT_EPOCH,BSTAR,MEAN_MOTION_DOT,MEAN_MOTION_DDOT
COSMOS 2439,2008-025D,2026-06-11T22:33:31.400064,12.43069844,.00205025,82.5083,1.0591,329.0047,30.9821,0,U,32956,999,81906,-.15713594E-3,-.12E-6,0
FENGYUN 3A,2008-026A,2026-06-11T19:57:25.301376,14.19570092,.000937,98.6884,103.7650,137.8042,222.3857,0,U,32958,999,93464,.40218253E-4,.42E-6,0
ZHONGXING-9,2008-028A,2026-06-11T22:14:19.452192,1.00271681,.00042638,0.7539,85.4458,335.1520,265.6490,0,U,33051,999,6598,0,-.233E-5,0
FGRST (GLAST),2008-029A,2026-06-11T12:45:58.911840,15.23922087,.0007603,25.5814,243.7508,258.7530,101.2154,0,U,33053,999,99497,.1082E-3,.3028E-4,0
SKYNET 5C,2008-030A,2026-06-11T21:43:00.621120,1.00269706,.00039683,3.7748,77.1013,14.1134,116.9777,0,U,33055,999,6590,0,-.126E-5,0
TURKSAT 3A,2008-030B,2026-06-11T20:17:20.514048,1.00274029,.00050209,0.0437,77.7375,352.3413,176.4502,0,U,33056,999,5230,0,.162E-5,0
INTELSAT 25 (IS-25),2008-034A,2026-06-11T22:29:18.015648,0.99037270,.00030465,2.6955,80.4310,56.1680,246.0079,0,U,33153,999,6563,0,-.269E-5,0
ECHOSTAR 11,2008-035A,2026-06-11T14:26:02.164416,1.00271440,.0002172,0.9899,84.2380,345.4325,296.9888,0,U,33207,999,5115,0,-.42E-6,0
SUPERBIRD-C2,2008-038A,2026-06-11T22:26:48.255936,1.00269564,.00059433,2.3468,81.3253,25.6518,265.9834,0,U,33274,999,10567,0,-.292E-5,0
INMARSAT 4-F3,2008-039A,2026-06-11T16:12:05.200416,1.00271785,.0002822,4.2885,31.6117,53.2521,320.1640,0,U,33278,999,4649,0,-.127E-5,0
HUANJING 1A (HJ-1A),2008-041A,2026-06-11T23:23:06.283392,14.83972875,.00195351,97.6678,149.0140,151.2324,208.9973,0,U,33320,999,95763,.98143713E-4,.767E-5,0
HUANJING 1B (HJ-1B),2008-041B,2026-06-11T22:35:10.046400,14.83309830,.00355841,97.6516,152.1698,198.3111,161.6825,0,U,33321,999,95763,.14660507E-3,.1161E-4,0
GEOEYE 1,2008-042A,2026-06-11T21:24:11.940768,14.64720795,.00055359,98.1235,236.8900,82.1999,277.9833,0,U,33331,999,94937,.77382203E-4,.365E-5,0
NIMIQ 4,2008-044A,2026-06-11T21:24:40.154688,1.00268994,.00019932,0.0189,307.6657,138.9120,52.7979,0,U,33373,999,6493,0,-.204E-5,0
GALAXY 19 (G-19),2008-045A,2026-06-11T16:12:20.176128,1.00270649,.00025806,0.0161,301.8034,139.9841,324.3216,0,U,33376,999,6484,0,-.122E-5,0
THEOS,2008-049A,2026-06-11T23:11:45.398688,14.20131583,.00012728,98.5578,220.4195,80.1127,280.0194,0,U,33396,999,91722,-.9781153E-4,-.251E-5,0
SHIJIAN-6 03A (SJ-6 03A),2008-053A,2026-06-11T23:17:13.128576,15.17115559,.00120836,97.8419,196.1091,37.1555,323.0511,0,U,33408,999,96217,.27695983E-3,.5428E-4,0
SHIJIAN-6 03B (SJ-6 03B),2008-053B,2026-06-11T23:28:18.501888,15.04295673,.00211861,97.8587,182.7832,61.3564,298.9788,0,U,33409,999,96196,.82979222E-4,.1095E-4,0
COSMO-SKYMED 3,2008-054A,2026-06-11T21:32:20.290848,15.06916036,.00144205,97.8288,21.3812,286.6629,73.3015,0,U,33412,999,95614,.24374869E-3,.3583E-4,0
SHIYAN-3 (SY-3),2008-056A,2026-06-11T22:54:05.605920,14.30800716,.00142927,98.6065,189.5488,145.6891,214.5218,0,U,33433,999,91805,.63858289E-4,.124E-5,0
CHUANGXIN 1-02 (CX-1-02),2008-056B,2026-06-11T23:31:43.796064,14.30151773,.00147236,98.6141,189.2990,151.1798,209.0200,0,U,33434,999,91787,.21184062E-4,.11E-6,0
ASTRA 1M,2008-057A,2026-06-11T21:53:29.615712,1.00269447,.00046562,0.2822,82.3783,21.3381,144.2839,0,U,33436,999,4568,0,.136E-5,0
YAOGAN-4,2008-061A,2026-06-11T18:28:52.033152,14.83189739,.00157778,97.9309,96.3204,88.4224,271.8797,0,U,33446,999,94486,.10625614E-3,.815E-5,0
EUTELSAT HOTBIRD 13C,2008-065A,2026-06-11T21:33:24.316704,1.00272949,.00033451,2.9361,79.2518,1.2706,92.7635,0,U,33459,999,4729,0,-.268E-5,0
GOSAT (IBUKI),2009-002A,2026-06-11T21:19:11.958240,14.67540316,.00016022,98.0884,274.0358,87.9866,272.1522,0,U,33492,999,93068,.17423003E-3,.94E-5,0
STARS (KUKAI),2009-002G,2026-06-11T19:12:24.387264,14.95712929,.00084375,98.1545,109.8890,175.5651,184.5645,0,U,33498,999,93767,.35044149E-3,.3842E-4,0
KKS-1 (KISEKI),2009-002H,2026-06-11T20:37:22.043424,14.83110411,.0006819,98.1193,85.2170,316.1824,43.8847,0,U,33499,999,93540,.14507697E-3,.1126E-4,0
EXPRESS-AM44,2009-007A,2026-06-11T21:44:52.941984,1.00271350,.00040744,3.4487,78.4625,356.9764,140.0270,0,U,33595,999,5223,0,-.75E-6,0
NSS-9,2009-008A,2026-06-11T19:14:58.058304,1.00272144,.0001952,1.2472,82.7051,347.0439,302.2029,0,U,33749,999,6346,0,.88E-6,0
TELSTAR 11N,2009-009A,2026-06-11T21:37:19.456032,1.00269585,.00021757,0.0044,68.3051,12.0299,106.6820,0,U,34111,999,4619,0,-.235E-5,0
NAVSTAR 63 (USA 203),2009-014A,2026-06-11T13:46:21.280224,2.00552574,.0144203,54.4840,210.8803,61.5671,301.8293,0,U,34661,999,12617,0,.88E-6,0
